[{"OBJECT_NAME":"STARLINK-34678","OBJECT_ID":"2025-194K","EPOCH":"2026-03-09T14:39:44.468640","MEAN_MOTION":15.05709231,"ECCENTRICITY":0.0002122,"INCLINATION":97.6022,"RA_OF_ASC_NODE":284.282,"ARG_OF_PERICENTER":90.3505,"MEAN_ANOMALY":269.7965,"EPHEMERIS_TYPE":0,"CLASSIFICATION_TYPE":"U","NORAD_CAT_ID":65443,"ELEMENT_SET_NO":999,"REV_AT_EPOCH":2963,"BSTAR":0.0020213,"MEAN_MOTION_DOT":0.00029272,"MEAN_MOTION_DDOT":0},{"OBJECT_NAME":"N-2 R\/B(2)","OBJECT_ID":"1981-012C","EPOCH":"2026-03-09T05:16:28.926336","MEAN_MOTION":4.73012459,"ECCENTRICITY":0.56031284,"INCLINATION":27.9972,"RA_OF_ASC_NODE":73.3459,"ARG_OF_PERICENTER":8.0771,"MEAN_ANOMALY":358.1094,"EPHEMERIS_TYPE":0,"CLASSIFICATION_TYPE":"U","NORAD_CAT_ID":12787,"ELEMENT_SET_NO":999,"REV_AT_EPOCH":53956,"BSTAR":0.0011940525,"MEAN_MOTION_DOT":0.00032576,"MEAN_MOTION_DDOT":0}]
